ONEWEB-0414             
1 50491U 21132Y   25326.55869707  .00000016  00000+0  66616-5 0  9999
2 50491  87.9204  16.4736 0001845 105.2723 254.8613 13.18684143194390
ONEWEB-0417             
1 50492U 21132Z   25326.18756074  .00000018  00000+0  12056-4 0  9991
2 50492  87.9206  16.5812 0001626  98.4697 261.6620 13.18684143194326
ONEWEB-0418             
1 50493U 21132AA  25326.19732313  .00000086  00000+0  18483-3 0  9997
2 50493  87.9204  16.5639 0001370  99.1659 260.9628 13.18688751194389
ONEWEB-0419             
1 50494U 21132AB  25326.21560254 -.00000015  00000+0 -69886-4 0  9992
2 50494  87.9208  16.5605 0001607  90.1497 269.9819 13.18684081194306
ONEWEB-0420             
1 50495U 21132AC  25326.18097948  .00000095  00000+0  20937-3 0  9993
2 50495  87.9205  16.5786 0002044  99.4639 260.6724 13.18688366194291
ONEWEB-0421             
1 50496U 21132AD  25326.55374893  .00000041  00000+0  71192-4 0  9993
2 50496  87.9205  16.4983 0001944 109.4762 250.6581 13.18688438194387
ONEWEB-0424             
1 50497U 21132AE  25326.21065623  .00000088  00000+0  19048-3 0  9997
2 50497  87.9206  16.5616 0001735  86.6962 273.4369 13.18688246194361
ONEWEB-0426             
1 50498U 21132AF  25326.55044713  .00000040  00000+0  67924-4 0  9997
2 50498  87.9206  16.4850 0001573 119.6396 240.4893 13.18684229194351
